NORAD_CAT_ID,OBJECT_NAME,OBJECT_TYPE,EPOCH,MEAN_MOTION,ECCENTRICITY,INCLINATION,RA_OF_ASC_NODE,ARG_OF_PERICENTER,MEAN_ANOMALY,BSTAR,MEAN_MOTION_DOT,MEAN_MOTION_DDOT,TLE_LINE0,TLE_LINE1,TLE_LINE2,SEMIMAJOR_AXIS,PERIOD,APOGEE,PERIGEE,DECAYED
55307.0,STARLINK-5288,PAYLOAD,2024-06-06 05:29:16,14.98333197,0.0003353,69.9983,181.9668,269.5048,90.5727,2.8601e-05,2.48e-06,0.0,0 STARLINK-5288,1 55307U 23010AQ  24158.22865828  .00000248  00000-0  28601-4 0  9992,2 55307  69.9983 181.9668 0003353 269.5048  90.5727 14.98333197 77364,6950.183,96.107,574.378,569.718,0.0
55307.0,STARLINK-5288,PAYLOAD,2024-06-06 11:53:48,14.98333893,0.0003342,69.9984,181.2935,269.6671,90.4105,3.5224e-05,3.27e-06,0.0,0 STARLINK-5288,1 55307U 23010AQ  24158.49569725  .00000327  00000-0  35224-4 0  9995,2 55307  69.9984 181.2935 0003342 269.6671  90.4105 14.98333893 77728,6950.181,96.107,574.369,569.723,0.0
55307.0,STARLINK-5288,PAYLOAD,2024-06-07 08:43:33,14.98330753,0.0003284,69.9987,179.1055,270.4872,89.5911,2.8886e-05,2.52e-06,0.0,0 STARLINK-5288,1 55307U 23010AQ  24159.36357816  .00000252  00000-0  28886-4 0  9991,2 55307  69.9987 179.1055 0003284 270.4872  89.5911 14.98330753 77533,6950.191,96.107,574.338,569.773,0.0
55307.0,STARLINK-5288,PAYLOAD,2024-06-07 18:20:21,14.98331475,0.000326,69.9987,178.0954,270.642,89.4366,1.5618e-05,9.3e-07,0.0,0 STARLINK-5288,1 55307U 23010AQ  24159.76413793  .00000093  00000-0  15618-4 0  9994,2 55307  69.9987 178.0954 0003260 270.6420  89.4366 14.98331475 77911,6950.188,96.107,574.319,569.788,0.0
55307.0,STARLINK-5288,PAYLOAD,2024-06-08 10:21:42,14.98329746,0.0003309,69.9987,176.4126,268.8329,91.2451,1.7602e-05,1.17e-06,0.0,0 STARLINK-5288,1 55307U 23010AQ  24160.43173862  .00000117  00000-0  17602-4 0  9992,2 55307  69.9987 176.4126 0003309 268.8329  91.2451 14.98329746 78011,6950.194,96.107,574.358,569.759,0.0
55307.0,STARLINK-5288,PAYLOAD,2024-06-08 18:22:22,14.98330412,0.0003331,69.9988,175.571,269.2417,90.8361,2.1532e-05,1.64e-06,0.0,0 STARLINK-5288,1 55307U 23010AQ  24160.76553799  .00000164  00000-0  21532-4 0  9998,2 55307  69.9988 175.5710 0003331 269.2417  90.8361 14.98330412 77745,6950.192,96.107,574.372,569.742,0.0
55307.0,STARLINK-5288,PAYLOAD,2024-06-09 10:23:43,14.9832996,0.0003337,69.9989,173.8879,268.9921,91.0856,3.4187e-05,3.15e-06,0.0,0 STARLINK-5288,1 55307U 23010AQ  24161.43313832  .00000315  00000-0  34187-4 0  9993,2 55307  69.9989 173.8879 0003337 268.9921  91.0856 14.98329960 78160,6950.193,96.107,574.377,569.739,0.0
55307.0,STARLINK-5288,PAYLOAD,2024-06-09 18:24:23,14.98331102,0.0003366,69.9987,173.046,269.2554,90.822,4.7749e-05,4.77e-06,0.0,0 STARLINK-5288,1 55307U 23010AQ  24161.76693715  .00000477  00000-0  47749-4 0  9997,2 55307  69.9987 173.0460 0003366 269.2554  90.8220 14.98331102 77896,6950.189,96.107,574.394,569.715,0.0
55307.0,STARLINK-5288,PAYLOAD,2024-06-10 10:25:43,14.98337774,0.0003344,69.9987,171.3629,269.4895,90.588,0.00012995,1.458e-05,0.0,0 STARLINK-5288,1 55307U 23010AQ  24162.43453021  .00001458  00000-0  12995-3 0  9990,2 55307  69.9987 171.3629 0003344 269.4895  90.5880 14.98337774 77991,6950.169,96.107,574.358,569.71,0.0
55307.0,STARLINK-5288,PAYLOAD,2024-06-10 18:26:24,14.98332423,0.0003244,69.999,170.5206,269.5978,90.481,6.5953e-05,6.94e-06,0.0,0 STARLINK-5288,1 55307U 23010AQ  24162.76833449  .00000694  00000-0  65953-4 0  9996,2 55307  69.9990 170.5206 0003244 269.5978  90.4810 14.98332423 78044,6950.185,96.107,574.305,569.796,0.0
55307.0,STARLINK-5288,PAYLOAD,2024-06-11 10:27:45,14.98327516,0.0003322,69.9987,168.838,270.2412,89.8367,4.1536e-06,-4.4e-07,0.0,0 STARLINK-5288,1 55307U 23010AQ  24163.43593863 -.00000044  00000-0  41536-5 0  9996,2 55307  69.9987 168.8380 0003322 270.2412  89.8367 14.98327516 78464,6950.201,96.107,574.374,569.757,0.0
55307.0,STARLINK-5288,PAYLOAD,2024-06-12 05:41:21,14.98334058,0.0003337,69.9987,166.8182,270.2996,89.778,2.4009e-05,1.93e-06,0.0,0 STARLINK-5288,1 55307U 23010AQ  24164.23705302  .00000193  00000-0  24009-4 0  9997,2 55307  69.9987 166.8182 0003337 270.2996  89.7780 14.98334058 78260,6950.18,96.107,574.365,569.726,0.0
55307.0,STARLINK-5288,PAYLOAD,2024-06-12 16:54:17,14.98333376,0.0003359,69.9987,165.6398,270.7454,89.332,-2.5283e-05,-3.95e-06,0.0,0 STARLINK-5288,1 55307U 23010AQ  24164.70437329 -.00000395  00000-0 -25283-4 0  9991,2 55307  69.9987 165.6398 0003359 270.7454  89.3320 14.98333376 78655,6950.182,96.107,574.382,569.713,0.0
55307.0,STARLINK-5288,PAYLOAD,2024-06-13 08:55:38,14.98328182,0.0003419,69.9986,163.9566,270.9147,89.162,4.8679e-05,4.88e-06,0.0,0 STARLINK-5288,1 55307U 23010AQ  24165.37197468  .00000488  00000-0  48679-4 0  9997,2 55307  69.9986 163.9566 0003419 270.9147  89.1620 14.98328182 78436,6950.199,96.107,574.44,569.687,0.0
55307.0,STARLINK-5288,PAYLOAD,2024-06-14 10:33:47,14.98328918,0.0003366,69.9987,161.2634,268.1964,91.881,-6.405e-06,-1.69e-06,0.0,0 STARLINK-5288,1 55307U 23010AQ  24166.44013600 -.00000169  00000-0 -64050-5 0  9991,2 55307  69.9987 161.2634 0003366 268.1964  91.8810 14.98328918 78912,6950.196,96.107,574.401,569.722,0.0
55307.0,STARLINK-5288,PAYLOAD,2024-06-14 16:58:19,14.98330125,0.0003388,69.9987,160.5902,268.4524,91.6247,1.6615e-05,1.05e-06,0.0,0 STARLINK-5288,1 55307U 23010AQ  24166.70717471  .00000105  00000-0  16615-4 0  9998,2 55307  69.9987 160.5902 0003388 268.4524  91.6247 14.98330125 78950,6950.193,96.107,574.412,569.703,0.0
55307.0,STARLINK-5288,PAYLOAD,2024-06-15 08:59:40,14.983314,0.0003414,69.9987,158.9068,268.4232,91.6536,5.0101e-05,5.05e-06,0.0,0 STARLINK-5288,1 55307U 23010AQ  24167.37477296  .00000505  00000-0  50101-4 0  9992,2 55307  69.9987 158.9068 0003414 268.4232  91.6536 14.98331400 79050,6950.189,96.107,574.426,569.681,0.0
55307.0,STARLINK-5288,PAYLOAD,2024-06-16 09:01:41,14.9833176,0.0003402,69.9986,156.3822,268.5666,91.5104,6.8186e-05,7.21e-06,0.0,0 STARLINK-5288,1 55307U 23010AQ  24168.37617215  .00000721  00000-0  68186-4 0  9992,2 55307  69.9986 156.3822 0003402 268.5666  91.5104 14.98331760 79204,6950.187,96.107,574.417,569.688,0.0
55307.0,STARLINK-5288,PAYLOAD,2024-06-16 21:50:45,14.98330011,0.000338,69.9986,155.0352,268.5244,91.5528,1.885e-05,1.32e-06,0.0,0 STARLINK-5288,1 55307U 23010AQ  24168.91025433  .00000132  00000-0  18850-4 0  9996,2 55307  69.9986 155.0352 0003380 268.5244  91.5528 14.98330011 79281,6950.193,96.107,574.407,569.709,0.0
55307.0,STARLINK-5288,PAYLOAD,2024-06-17 09:03:42,14.98331977,0.0003394,69.9986,153.8572,268.929,91.148,3.1278e-05,2.8e-06,0.0,0 STARLINK-5288,1 55307U 23010AQ  24169.37757316  .00000280  00000-0  31278-4 0  9992,2 55307  69.9986 153.8572 0003394 268.9290  91.1480 14.98331977 79354,6950.187,96.107,574.411,569.693,0.0
55307.0,STARLINK-5288,PAYLOAD,2024-06-18 09:05:42,14.98334324,0.0003354,69.9987,151.3323,269.17,90.9074,4.7748e-05,4.77e-06,0.0,0 STARLINK-5288,1 55307U 23010AQ  24170.37896927  .00000477  00000-0  47748-4 0  9993,2 55307  69.9987 151.3323 0003354 269.1700  90.9074 14.98334324 79183,6950.18,96.107,574.376,569.713,0.0
55307.0,STARLINK-5288,PAYLOAD,2024-06-18 15:30:15,14.98331576,0.0003325,69.9988,150.659,269.392,90.6858,2.8604e-05,2.48e-06,0.0,0 STARLINK-5288,1 55307U 23010AQ  24170.64601095  .00000248  00000-0  28604-4 0  9999,2 55307  69.9988 150.6590 0003325 269.3920  90.6858 14.98331576 79549,6950.188,96.107,574.364,569.742,0.0
55307.0,STARLINK-5288,PAYLOAD,2024-06-19 07:31:35,14.98331641,0.0003267,69.999,148.976,269.5131,90.5653,4.8767e-05,4.89e-06,0.0,0 STARLINK-5288,1 55307U 23010AQ  24171.31360982  .00000489  00000-0  48767-4 0  9990,2 55307  69.9990 148.9760 0003267 269.5131  90.5653 14.98331641 79648,6950.188,96.107,574.323,569.782,0.0
55307.0,STARLINK-5288,PAYLOAD,2024-06-19 21:56:48,14.98329814,0.0003194,69.9992,147.4612,269.1751,90.9042,-2.2681e-05,-3.64e-06,0.0,0 STARLINK-5288,1 55307U 23010AQ  24171.91445246 -.00000364  00000-0 -22681-4 0  9994,2 55307  69.9992 147.4612 0003194 269.1751  90.9042 14.98329814 79413,6950.193,96.107,574.278,569.839,0.0
55307.0,STARLINK-5288,PAYLOAD,2024-06-20 07:33:37,14.98330057,0.0003204,69.9992,146.4515,267.7758,92.3034,-1.9834e-05,-3.3e-06,0.0,0 STARLINK-5288,1 55307U 23010AQ  24172.31501197 -.00000330  00000-0 -19834-4 0  9996,2 55307  69.9992 146.4515 0003204 267.7758  92.3034 14.98330057 79796,6950.193,96.107,574.285,569.831,0.0
55307.0,STARLINK-5288,PAYLOAD,2024-06-20 21:58:49,14.98330878,0.0003183,69.9992,144.9367,267.2836,92.7959,3.0308e-06,-5.7e-07,0.0,0 STARLINK-5288,1 55307U 23010AQ  24172.91585070 -.00000057  00000-0  30308-5 0  9999,2 55307  69.9992 144.9367 0003183 267.2836  92.7959 14.98330878 79883,6950.19,96.107,574.267,569.843,0.0
55307.0,STARLINK-5288,PAYLOAD,2024-06-20 23:34:57,14.9833074,0.0003187,69.9992,144.7683,267.239,92.8404,1.9289e-06,-7e-07,0.0,0 STARLINK-5288,1 55307U 23010AQ  24172.98261074 -.00000070  00000-0  19289-5 0  9991,2 55307  69.9992 144.7683 0003187 267.2390  92.8404 14.98330740 79571,6950.191,96.107,574.271,569.841,0.0
55307.0,STARLINK-5288,PAYLOAD,2024-06-21 07:35:37,14.98331516,0.0003179,69.9992,143.9266,267.0059,93.0736,2.0609e-05,1.53e-06,0.0,0 STARLINK-5288,1 55307U 23010AQ  24173.31640954  .00000153  00000-0  20609-4 0  9995,2 55307  69.9992 143.9266 0003179 267.0059  93.0736 14.98331516 79944,6950.188,96.107,574.263,569.844,0.0
55307.0,STARLINK-5288,PAYLOAD,2024-06-22 04:25:23,14.98325953,0.0003157,69.9992,141.7382,265.7272,94.3526,3.7341e-06,-4.8e-07,0.0,0 STARLINK-5288,1 55307U 23010AQ  24174.18429437 -.00000048  00000-0  37341-5 0  9998,2 55307  69.9992 141.7382 0003157 265.7272  94.3526 14.98325953 79755,6950.205,96.107,574.265,569.876,0.0
55307.0,STARLINK-5288,PAYLOAD,2024-06-22 07:37:39,14.98326357,0.000315,69.9992,141.4016,265.6369,94.443,7.8106e-06,0.0,0.0,0 STARLINK-5288,1 55307U 23010AQ  24174.31781429  .00000000  00000-0  78106-5 0  9996,2 55307  69.9992 141.4016 0003150 265.6369  94.4430 14.98326357 80098,6950.204,96.107,574.258,569.88,0.0
